      2.10          N: GNSS NAV DATA                        RINEX VERSION / TYPE
fic2rin                                 10/28/2019 00:19:34 PGM / RUN BY / DATE
                                                            END OF HEADER
28 19 10 27  9 59 44.0 7.575219497085e-04-1.364242052659e-12 0.000000000000e+00
    2.400000000000e+01-5.118750000000e+01 4.507330605555e-09-1.932054765196e+00
   -2.166256308556e-06 1.913153741043e-02 1.838430762291e-06 5.153701665878e+03
    3.598400000000e+04 2.291053533554e-07-1.458966654149e+00 3.967434167862e-07
    9.798989327466e-01 3.502812500000e+02-1.448005273769e+00-8.214627886510e-09
   -1.703642392115e-10 1.000000000000e+00 2.077000000000e+03 0.000000000000e+00
    2.400000000000e+00 0.000000000000e+00-1.117587089539e-08 2.400000000000e+01
    2.880000000000e+04 4.000000000000e+00
 2 19 10 27 10  0  0.0-3.344449214637e-04-7.844391802792e-12 0.000000000000e+00
    3.000000000000e+01 5.603125000000e+01 4.616620872219e-09 1.677420961785e+00
    2.587214112282e-06 1.928260456771e-02 1.049228012562e-05 5.153564411163e+03
    3.600000000000e+04-7.078051567078e-08 4.777986692267e-01-5.643814802170e-07
    9.567150298097e-01 1.744375000000e+02-1.705630757819e+00-8.036763334880e-09
    6.071681481333e-10 1.000000000000e+00 2.077000000000e+03 0.000000000000e+00
    2.400000000000e+00 0.000000000000e+00-1.769512891769e-08 3.000000000000e+01
    2.880000000000e+04 4.000000000000e+00
 1 19 10 27 10  0  0.0-1.768581569195e-04-1.296029950026e-11 0.000000000000e+00
    6.900000000000e+01 6.359375000000e+01 4.349824044774e-09 1.386729362753e+00
    3.423541784286e-06 9.115548804402e-03 1.022778451443e-05 5.153644161224e+03
    3.600000000000e+04-9.313225746155e-08 5.496700365348e-01 1.620501279831e-07
    9.775854126535e-01 1.913125000000e+02 7.656721994233e-01-8.073907739237e-09
    6.268118235141e-10 1.000000000000e+00 2.077000000000e+03 0.000000000000e+00
    2.400000000000e+00 0.000000000000e+00 5.587935447693e-09 6.900000000000e+01
    2.880000000000e+04 4.000000000000e+00
 8 19 10 27 10  0  0.0-1.132907345891e-05-1.364242052659e-12 0.000000000000e+00
    1.200000000000e+01-1.012187500000e+02 4.160530445650e-09-2.501783216764e+00
   -5.124136805534e-06 4.586964845657e-03 1.341849565506e-05 5.153579582214e+03
    3.600000000000e+04-1.005828380585e-07-5.175979860909e-01-1.862645149231e-08
    9.704548749066e-01 1.265937500000e+02-2.344281924866e-01-7.804610807653e-09
   -2.607251459631e-10 1.000000000000e+00 2.077000000000e+03 0.000000000000e+00
    2.400000000000e+00 0.000000000000e+00 5.122274160385e-09 1.200000000000e+01
    2.880000000000e+04 4.000000000000e+00
 5 19 10 27 10  0  0.0-2.759043127298e-06-4.547473508865e-13 0.000000000000e+00
    9.200000000000e+01-2.937500000000e+01 5.318792977648e-09-2.065721192185e+00
   -1.518055796623e-06 5.918816197664e-03 3.088265657425e-06 5.153779493332e+03
    3.600000000000e+04 1.005828380585e-07 1.562642280358e+00-1.303851604462e-08
    9.503837105420e-01 3.141250000000e+02 8.086100534201e-01-8.611430129202e-09
   -1.792931825664e-10 1.000000000000e+00 2.077000000000e+03 0.000000000000e+00
    2.400000000000e+00 0.000000000000e+00-1.117587089539e-08 9.200000000000e+01
    2.880000000000e+04 4.000000000000e+00
 3 19 10 27 10  0  0.0-2.792105078697e-05-5.229594535194e-12 0.000000000000e+00
    1.130000000000e+02-2.853125000000e+01 5.136999690942e-09 2.227366111768e-01
   -1.493841409683e-06 2.598792198114e-03 3.594905138016e-06 5.153673442841e+03
    3.600000000000e+04 5.587935447693e-09 1.591603360897e+00 7.078051567078e-08
    9.635027210015e-01 3.094062500000e+02 7.837453717178e-01-8.552499103059e-09
   -3.235849071817e-10 1.000000000000e+00 2.077000000000e+03 0.000000000000e+00
    2.400000000000e+00 0.000000000000e+00 2.328306436539e-09 1.130000000000e+02
    2.880000000000e+04 4.000000000000e+00
10 19 10 27 10  0  0.0-1.107049174607e-04-1.512034941697e-11 0.000000000000e+00
    6.900000000000e+01-3.684375000000e+01 5.053781938875e-09-5.908424863440e-01
   -2.080574631691e-06 4.967052373104e-03 3.974884748459e-06 5.153653373718e+03
    3.600000000000e+04 7.636845111847e-08 1.588447138548e+00 4.842877388000e-08
    9.634926809947e-01 3.049687500000e+02-2.743076224021e+00-8.511425963627e-09
   -3.993023468312e-10 1.000000000000e+00 2.077000000000e+03 0.000000000000e+00
    2.400000000000e+00 0.000000000000e+00 1.862645149231e-09 6.900000000000e+01
    2.880000000000e+04 4.000000000000e+00
 9 19 10 27 10  0  0.0-6.766943261027e-05-1.000444171950e-11 0.000000000000e+00
    6.900000000000e+01-4.340625000000e+01 4.409826544119e-09-2.217039787052e+00
   -2.255663275719e-06 1.559409429319e-03 1.334585249424e-05 5.153580486298e+03
    3.600000000000e+04 6.146728992462e-08 2.623467184590e+00-3.911554813385e-08
    9.528781409365e-01 1.188750000000e+02 1.663343975513e+00-7.951045478673e-09
   -5.807384758028e-10 1.000000000000e+00 2.077000000000e+03 0.000000000000e+00
    2.400000000000e+00 0.000000000000e+00 1.396983861923e-09 6.900000000000e+01
    2.880000000000e+04 4.000000000000e+00
 6 19 10 27 10  0  0.0-1.041982322931e-04-1.250555214938e-11 0.000000000000e+00
    4.100000000000e+01 5.840625000000e+01 4.256963033883e-09 1.772761900432e+00
    3.073364496231e-06 1.473705866374e-03 1.014024019241e-05 5.153681880951e+03
    3.600000000000e+04 0.000000000000e+00 5.414045727936e-01-7.450580596924e-08
    9.772087302660e-01 1.898750000000e+02-1.200443627433e+00-7.867470568871e-09
    5.625234313588e-10 1.000000000000e+00 2.077000000000e+03 0.000000000000e+00
    2.400000000000e+00 0.000000000000e+00 4.656612873077e-09 4.100000000000e+01
    2.880000000000e+04 4.000000000000e+00
22 19 10 27 10  0  0.0-7.672426290810e-04-2.955857780762e-12 0.000000000000e+00
    4.600000000000e+01-1.821875000000e+01 5.949890693973e-09 2.646136759177e+00
   -9.518116712570e-07 6.861095316708e-03 2.657994627953e-06 5.153658664703e+03
    3.600000000000e+04 1.024454832077e-07 1.512900296359e+00 2.980232238770e-08
    9.281973743692e-01 3.076875000000e+02-1.270560960352e+00-8.859297596734e-09
   -2.596536727606e-10 1.000000000000e+00 2.077000000000e+03 0.000000000000e+00
    2.400000000000e+00 0.000000000000e+00-1.816079020500e-08 4.600000000000e+01
    2.880000000000e+04 4.000000000000e+00
25 19 10 27 10  0  0.0-1.625670120120e-05-6.821210263297e-13 0.000000000000e+00
    3.500000000000e+01-4.359375000000e+01 4.940920094869e-09-2.918290295419e-01
   -2.177432179451e-06 8.508944534697e-03 1.858919858932e-06 5.153637351990e+03
    3.600000000000e+04-5.587935447693e-09-1.548030672137e+00 7.450580596924e-08
    9.679866790220e-01 3.509375000000e+02 8.899178948009e-01-8.717863133992e-09
   -1.485776174256e-10 1.000000000000e+00 2.077000000000e+03 0.000000000000e+00
    2.400000000000e+00 0.000000000000e+00 5.587935447693e-09 3.500000000000e+01
    2.880000000000e+04 4.000000000000e+00
20 19 10 27 10  0  0.0 5.273120477796e-04 1.136868377216e-13 0.000000000000e+00
    2.300000000000e+01-2.131250000000e+01 5.860601260424e-09 9.857443598664e-01
   -1.357868313789e-06 5.005541373976e-03 2.555549144745e-06 5.153612462997e+03
    3.600000000000e+04 7.264316082001e-08 1.464696855989e+00-6.146728992462e-08
    9.314862409637e-01 3.121562500000e+02 2.463744969462e+00-8.947158399346e-09
   -2.610823036973e-10 1.000000000000e+00 2.077000000000e+03 0.000000000000e+00
    2.400000000000e+00 0.000000000000e+00-8.381903171539e-09 2.300000000000e+01
    2.880000000000e+04 4.000000000000e+00
16 19 10 27 10  0  0.0-8.725840598345e-05-3.637978807092e-12 0.000000000000e+00
    1.030000000000e+02-6.434375000000e+01 4.529474385075e-09-1.751251558222e+00
   -3.535300493240e-06 1.087935385294e-02 2.451241016388e-06 5.153651912689e+03
    3.600000000000e+04 7.823109626770e-08-1.462838530171e+00-8.754432201385e-08
    9.809184886324e-01 3.366875000000e+02 5.796330404084e-01-8.330704150124e-09
   -1.264338379054e-10 1.000000000000e+00 2.077000000000e+03 0.000000000000e+00
    3.400000000000e+00 0.000000000000e+00-1.024454832077e-08 1.030000000000e+02
    2.880000000000e+04 4.000000000000e+00
24 19 10 27 10  0  0.0-4.056375473738e-06-5.684341886081e-13 0.000000000000e+00
    6.300000000000e+01 1.209062500000e+02 4.918061999880e-09 1.659734207597e+00
    6.290152668953e-06 8.933565928601e-03 8.946284651756e-06 5.153682434082e+03
    3.600000000000e+04-1.601874828339e-07-2.653546562134e+00 1.154839992523e-07
    9.379977668692e-01 1.945937500000e+02 6.141307684859e-01-8.487496395436e-09
    4.060883437809e-10 1.000000000000e+00 2.077000000000e+03 0.000000000000e+00
    3.400000000000e+00 0.000000000000e+00 2.793967723846e-09 6.300000000000e+01
    2.880000000000e+04 4.000000000000e+00
30 19 10 27 10  0  0.0-7.058866322041e-05-8.299139153678e-12 0.000000000000e+00
    4.300000000000e+01 1.206875000000e+02 4.969492713604e-09 6.772833605534e-01
    6.364658474922e-06 4.155642585829e-03 8.048489689827e-06 5.153740795135e+03
    3.600000000000e+04 2.421438694000e-08-2.559136156419e+00 6.519258022308e-08
    9.401075156401e-01 2.123750000000e+02-2.902295239218e+00-8.458566618966e-09
    5.389510209019e-10 1.000000000000e+00 2.077000000000e+03 0.000000000000e+00
    2.400000000000e+00 0.000000000000e+00 3.725290298462e-09 4.300000000000e+01
    2.880000000000e+04 4.000000000000e+00
23 19 10 27 10  0  0.0-1.590694300830e-04 2.160049916711e-12 0.000000000000e+00
    4.100000000000e+01-4.615625000000e+01 4.640907598144e-09 2.154710330711e+00
   -2.590939402580e-06 1.323391485494e-02 1.392699778080e-05 5.153742099762e+03
    3.600000000000e+04-1.061707735062e-07 2.616904180060e+00-3.129243850708e-07
    9.436809241898e-01 1.009375000000e+02-2.222838946462e+00-7.988904198498e-09
   -5.532373302697e-10 1.000000000000e+00 2.077000000000e+03 0.000000000000e+00
    2.400000000000e+00 0.000000000000e+00-2.048909664154e-08 4.100000000000e+01
    2.880000000000e+04 4.000000000000e+00
